[{"OBJECT_NAME":"SHIYAN-27 D","OBJECT_ID":"2025-078D","EPOCH":"2026-03-09T23:58:15.771360","MEAN_MOTION":13.57239148,"ECCENTRICITY":7.472e-5,"INCLINATION":99.6973,"RA_OF_ASC_NODE":77.6907,"ARG_OF_PERICENTER":97.3324,"MEAN_ANOMALY":262.7899,"EPHEMERIS_TYPE":0,"CLASSIFICATION_TYPE":"U","NORAD_CAT_ID":63602,"ELEMENT_SET_NO":999,"REV_AT_EPOCH":4407,"BSTAR":0.00011133283,"MEAN_MOTION_DOT":3.5e-7,"MEAN_MOTION_DDOT":0},{"OBJECT_NAME":"NIMBUS 2 DEB","OBJECT_ID":"1966-040BM","EPOCH":"2026-03-09T22:59:33.882720","MEAN_MOTION":13.49426502,"ECCENTRICITY":0.0036616,"INCLINATION":100.2065,"RA_OF_ASC_NODE":257.6493,"ARG_OF_PERICENTER":4.971,"MEAN_ANOMALY":355.1779,"EPHEMERIS_TYPE":0,"CLASSIFICATION_TYPE":"U","NORAD_CAT_ID":40648,"ELEMENT_SET_NO":999,"REV_AT_EPOCH":52966,"BSTAR":0.004527505,"MEAN_MOTION_DOT":2.82e-5,"MEAN_MOTION_DDOT":0}]
